KUIPER-00517            
1 69600U 26140J   26195.53560814  .00016998  00000+0  44436-3 0  9995
2 69600  51.8780 266.2703 0010479 289.7075  70.2782 15.38821702  5443
KUIPER-00520            
1 69601U 26140K   26195.55948032  .00007645  00000+0  21391-3 0  9994
2 69601  51.8804 266.4353 0006850 353.5232   6.5665 15.37636953  5440
KUIPER-00522            
1 69602U 26140L   26195.40239791  .00022536  00000+0  58784-3 0  9996
2 69602  51.8766 266.8758 0013533 262.0154  97.9298 15.38654927  5420
KUIPER-00528            
1 69603U 26140M   26195.56210615  .00007629  00000+0  21453-3 0  9997
2 69603  51.8773 266.4415 0005814   0.1790 359.9198 15.37486448  5447
KUIPER-00532            
1 69604U 26140N   26195.50796617  .00013621  00000+0  38579-3 0  9999
2 69604  51.8782 266.8264 0005222  33.7129 326.4188 15.36556816  5438
KUIPER-00533            
1 69605U 26140P   26195.54660388  .00017024  00000+0  45335-3 0  9998
2 69605  51.8782 266.3406 0008033 324.8783  35.1674 15.38270266  5444
KUIPER-00534            
1 69606U 26140Q   26195.39733054  .00018224  00000+0  47665-3 0  9994
2 69606  51.8808 266.8511 0013415 262.9424  97.0038 15.38718731  5423
KUIPER-00537            
1 69607U 26140R   26195.53104565  .00012053  00000+0  36954-3 0  9993
2 69607  51.8800 266.9829 0010100  53.3421 306.8492 15.34144712  5430
KUIPER-00538            
1 69608U 26140S   26195.55703666  .00007818  00000+0  21793-3 0  9991
2 69608  51.8800 266.4163 0006672 340.5884  19.4848 15.37720478  5445
KUIPER-00540            
1 69609U 26140T   26195.50362145  .00009367  00000+0  26536-3 0  9991
2 69609  51.8813 266.8078 0006662  21.7928 338.3341 15.36957918  5435
KUIPER-00541            
1 69610U 26140U   26195.54629566 -.00008088  00000+0 -19967-3 0  9991
2 69610  51.8805 266.3511 0007543 318.5864  41.4551 15.38428649  5442
KUIPER-00542            
1 69611U 26140V   26195.54504626  .00014367  00000+0  38418-3 0  9998
2 69611  51.8780 266.3297 0007885 300.2753  59.7453 15.38284690  5449
KUIPER-00543            
1 69612U 26140W   26195.50813029  .00011162  00000+0  31528-3 0  9990
2 69612  51.8792 266.8269 0008160  32.6543 327.4947 15.36830922  5432
KUIPER-00544            
1 69613U 26140X   26195.48450930  .00014780  00000+0  39647-3 0  9995
2 69613  51.8777 266.6750 0006809 317.9853  42.0611 15.38169430  5439
KUIPER-00546            
1 69614U 26140Y   26195.72275957 -.00157507  00000+0 -41837-2 0  9997
2 69614  51.8805 265.2809 0014337 257.3045 102.6340 15.38166665  5470
KUIPER-00547            
1 69615U 26140Z   26195.47856029  .00016324  00000+0  43981-3 0  9997
2 69615  51.8805 266.6446 0010914 287.1660  72.8132 15.37917453  5435
